GSAT0101 (PRN E11)      
1 37846U 11060A   21023.50808019 -.00000052  00000-0  00000+0 0  9992
2 37846  56.7609  35.2441 0003823 316.7137  43.3004  1.70475429 57652
GSAT0102 (PRN E12)      
1 37847U 11060B   21024.31916023 -.00000049  00000-0  00000-0 0  9995
2 37847  56.7614  35.2213 0005658 303.7776 240.1952  1.70475571 57544
GSAT0103 (PRN E19)      
1 38857U 12055A   21024.13622429  .00000025  00000-0  00000-0 0  9999
2 38857  55.0177 155.7077 0002117 242.6753 117.2583  1.70473686 51577
GSAT0104 (PRN E20)      
1 38858U 12055B   21024.07065012  .00000025  00000-0  00000-0 0  9992
2 38858  55.0185 155.7091 0000882 229.6525 130.2952  1.70473609 51572
GSAT0201 (PRN E18)      
1 40128U 14050A   21023.31413919 -.00000105  00000-0  00000-0 0  9991
2 40128  50.5249 352.6066 1652068 106.5421 272.2217  1.85519364 41759
GSAT0202 (PRN E14)      
1 40129U 14050B   21023.03805144 -.00000106  00000-0  00000-0 0  9997
2 40129  50.5583 351.6620 1649550 107.3443 271.3420  1.85520075 43918
GSAT0203 (PRN E26)      
1 40544U 15017A   21023.87584109 -.00000051  00000-0  00000-0 0  9998
2 40544  56.5550  35.3373 0005507 263.8965  96.0853  1.70475079 35611
GSAT0204 (PRN E22)      
1 40545U 15017B   21024.24335619 -.00000049  00000-0  00000-0 0  9998
2 40545  56.5616  35.3438 0003313 246.6924 113.3177  1.70475277 36280
GSAT0205 (PRN E24)      
1 40889U 15045A   21020.96586555 -.00000007  00000-0  00000-0 0  9996
2 40889  55.9837 276.1094 0005809  12.5340 347.5455  1.70474789 33370
GSAT0206 (PRN E30)      
1 40890U 15045B   21024.11831189  .00000015  00000-0  00000-0 0  9993
2 40890  55.9807 276.0186 0004111   7.4101 352.6703  1.70474890 33458
GSAT0209 (PRN E09)      
1 41174U 15079A   21021.94551326  .00000028  00000-0  00000-0 0  9990
2 41174  55.0326 155.4676 0002799 324.7503  35.1922  1.70473720 31327
GSAT0208 (PRN E08)      
1 41175U 15079B   21023.33838979  .00000026  00000-0  00000-0 0  9996
2 41175  55.0309 155.4283 0002034 330.3026  29.6436  1.70473687 31766
GSAT0211 (PRN E02)      
1 41549U 16030A   21024.04644317  .00000015  00000-0  00000-0 0  9997
2 41549  56.1231 275.9002 0004550 341.4227  18.6350  1.70474574 29086
GSAT0210 (PRN E01)      
1 41550U 16030B   21023.16613392  .00000008  00000-0  00000-0 0  9992
2 41550  56.1242 275.9261 0003172 318.8333  41.2131  1.70474641 29064
GSAT0207 (PRN E07)      
1 41859U 16069A   21023.99798944  .00000025  00000-0  00000-0 0  9993
2 41859  54.6906 155.7186 0002532 301.6560  58.2747  1.70473638 25970
GSAT0212 (PRN E03)      
1 41860U 16069B   21023.85143485  .00000025  00000-0  00000-0 0  9994
2 41860  54.6892 155.7213 0001983 349.1819  10.7697  1.70473652 26064
GSAT0213 (PRN E04)      
1 41861U 16069C   21023.63054856  .00000026  00000-0  00000-0 0  9995
2 41861  54.6912 155.7318 0001964 259.3174 100.6172  1.70473754 26069
GSAT0214 (PRN E05)      
1 41862U 16069D   21024.36419779  .00000024  00000-0  00000-0 0  9994
2 41862  54.6892 155.7065 0001212 265.3927  94.5478  1.70473668 26069
GSAT0215 (PRN E21)      
1 43055U 17079A   21023.09501625  .00000008  00000-0  00000-0 0  9995
2 43055  56.0997 275.7665 0002489 323.5996  36.4537  1.70473825 19389
GSAT0216 (PRN E25)      
1 43056U 17079B   21023.97421305  .00000015  00000-0  00000-0 0  9997
2 43056  56.0992 275.7419 0003931 304.4324  55.6045  1.70473944 19411
GSAT0217 (PRN E27)      
1 43057U 17079C   21023.02113190  .00000008  00000-0  00000-0 0  9996
2 43057  56.0983 275.7687 0004062 318.2702  41.7688  1.70473868 19388
GSAT0218 (PRN E31)      
1 43058U 17079D   21022.06810270  .00000001  00000-0  00000-0 0  9996
2 43058  56.1000 275.7923 0002288   6.9250 353.1451  1.70473388 19396
GSAT0221 (PRN E15)      
1 43564U 18060A   21024.31282148 -.00000048  00000-0  00000-0 0  9998
2 43564  56.9415  35.0099 0006257 276.3405  83.6328  1.70476120 15584
GSAT0222 (PRN E33)      
1 43565U 18060B   21022.77291301 -.00000055  00000-0  00000-0 0  9996
2 43565  56.9427  35.0518 0005951 281.6225  78.3534  1.70476131 15608
GSAT0219 (PRN E36)      
1 43566U 18060C   21024.16652121 -.00000049  00000-0  00000-0 0  9996
2 43566  56.9435  35.0154 0005663 278.3927  81.5876  1.70475987 15609
GSAT0220 (PRN E13)      
1 43567U 18060D   21023.79981911 -.00000050  00000-0  00000-0 0  9999
2 43567  56.9429  35.0260 0005752 278.7965  81.1825  1.70476146 15581
